{"fetched_at":"2026-07-13T07:47:54.571Z","source":"https://celestrak.org/NORAD/elements/gp.php?GROUP=oneweb&FORMAT=JSON","constellation":"oneweb","records":[{"OBJECT_NAME":"ONEWEB-0674","OBJECT_ID":"2023-029AP","EPOCH":"2026-07-12T18:08:50.858880","CLASSIFICATION_TYPE":"U","MEAN_MOTION":13.14501789,"ECCENTRICITY":0.000162,"INCLINATION":87.8954,"RA_OF_ASC_NODE":284.6222,"ARG_OF_PERICENTER":105.2784,"MEAN_ANOMALY":254.8525,"EPHEMERIS_TYPE":0,"NORAD_CAT_ID":55833,"ELEMENT_SET_NO":999,"REV_AT_EPOCH":16277,"BSTAR":-0.00034095,"MEAN_MOTION_DOT":-0.00000114,"MEAN_MOTION_DDOT":0},{"OBJECT_NAME":"ONEWEB-0675","OBJECT_ID":"2023-029AQ","EPOCH":"2026-07-12T16:21:37.426752","CLASSIFICATION_TYPE":"U","MEAN_MOTION":13.19724393,"ECCENTRICITY":0.0002246,"INCLINATION":87.9186,"RA_OF_ASC_NODE":299.9003,"ARG_OF_PERICENTER":97.8612,"MEAN_ANOMALY":262.2776,"EPHEMERIS_TYPE":0,"NORAD_CAT_ID":55834,"ELEMENT_SET_NO":999,"REV_AT_EPOCH":16228,"BSTAR":0.00012739,"MEAN_MOTION_DOT":6.4e-7,"MEAN_MOTION_DDOT":0},{"OBJECT_NAME":"ONEWEB-0720","OBJECT_ID":"2023-029AR","EPOCH":"2026-07-12T17:59:25.768320","CLASSIFICATION_TYPE":"U","MEAN_MOTION":13.19725912,"ECCENTRICITY":0.0002076,"INCLINATION":87.9186,"RA_OF_ASC_NODE":299.8861,"ARG_OF_PERICENTER":108.1898,"MEAN_ANOMALY":251.9461,"EPHEMERIS_TYPE":0,"NORAD_CAT_ID":55835,"ELEMENT_SET_NO":999,"REV_AT_EPOCH":16221,"BSTAR":-0.00012541,"MEAN_MOTION_DOT":-3.7e-7,"MEAN_MOTION_DDOT":0},{"OBJECT_NAME":"ONEWEB-0537","OBJECT_ID":"2023-043A","EPOCH":"2026-07-12T13:51:43.508160","CLASSIFICATION_TYPE":"U","MEAN_MOTION":13.1659391,"ECCENTRICITY":0.0002233,"INCLINATION":87.9082,"RA_OF_ASC_NODE":223.7278,"ARG_OF_PERICENTER":88.3924,"MEAN_ANOMALY":271.7463,"EPHEMERIS_TYPE":0,"NORAD_CAT_ID":56046,"ELEMENT_SET_NO":999,"REV_AT_EPOCH":16230,"BSTAR":0.000080115,"MEAN_MOTION_DOT":4.3e-7,"MEAN_MOTION_DDOT":0},{"OBJECT_NAME":"ONEWEB-0538","OBJECT_ID":"2023-043B","EPOCH":"2026-07-12T15:32:02.228928","CLASSIFICATION_TYPE":"U","MEAN_MOTION":13.16594009,"ECCENTRICITY":0.0002343,"INCLINATION":87.9087,"RA_OF_ASC_NODE":223.7161,"ARG_OF_PERICENTER":96.1679,"MEAN_ANOMALY":263.9719,"EPHEMERIS_TYPE":0,"NORAD_CAT_ID":56047,"ELEMENT_SET_NO":999,"REV_AT_EPOCH":16232,"BSTAR":-0.00011591,"MEAN_MOTION_DOT":-3.1e-7,"MEAN_MOTION_DDOT":0},{"OBJECT_NAME":"ONEWEB-0546","OBJECT_ID":"2023-043C","EPOCH":"2026-07-12T15:13:47.877888","CLASSIFICATION_TYPE":"U","MEAN_MOTION":13.16594243,"ECCENTRICITY":0.0002317,"INCLINATION":87.9087,"RA_OF_ASC_NODE":223.7186,"ARG_OF_PERICENTER":78.9274,"MEAN_ANOMALY":281.2117,"EPHEMERIS_TYPE":0,"NORAD_CAT_ID":56048,"ELEMENT_SET_NO":999,"REV_AT_EPOCH":16231,"BSTAR":-0.00011049,"MEAN_MOTION_DOT":-2.9e-7,"MEAN_MOTION_DDOT":0},{"OBJECT_NAME":"ONEWEB-0547","OBJECT_ID":"2023-043D","EPOCH":"2026-07-12T16:22:14.475072","CLASSIFICATION_TYPE":"U","MEAN_MOTION":13.21826419,"ECCENTRICITY":0.0002411,"INCLINATION":87.9243,"RA_OF_ASC_NODE":238.9006,"ARG_OF_PERICENTER":113.3786,"MEAN_ANOMALY":246.7602,"EPHEMERIS_TYPE":0,"NORAD_CAT_ID":56049,"ELEMENT_SET_NO":999,"REV_AT_EPOCH":16159,"BSTAR":-0.00018908,"MEAN_MOTION_DOT":-6.5e-7,"MEAN_MOTION_DDOT":0},{"OBJECT_NAME":"ONEWEB-0548","OBJECT_ID":"2023-043E","EPOCH":"2026-07-12T12:10:15.212928","CLASSIFICATION_TYPE":"U","MEAN_MOTION":13.16594475,"ECCENTRICITY":0.00015962,"INCLINATION":87.9074,"RA_OF_ASC_NODE":223.7409,"ARG_OF_PERICENTER":92.2249,"MEAN_ANOMALY":267.9065,"EPHEMERIS_TYPE":0,"NORAD_CAT_ID":56050,"ELEMENT_SET_NO":999,"REV_AT_EPOCH":16229,"BSTAR":-0.00004591558,"MEAN_MOTION_DOT":-5e-8,"MEAN_MOTION_DDOT":0},{"OBJECT_NAME":"ONEWEB-0549","OBJECT_ID":"2023-043F","EPOCH":"2026-07-12T12:35:45.843360","CLASSIFICATION_TYPE":"U","MEAN_MOTION":13.21827225,"ECCENTRICITY":0.00024391,"INCLINATION":87.9232,"RA_OF_ASC_NODE":238.938,"ARG_OF_PERICENTER":98.3208,"MEAN_ANOMALY":261.8203,"EPHEMERIS_TYPE":0,"NORAD_CAT_ID":56051,"ELEMENT_SET_NO":999,"REV_AT_EPOCH":16157,"BSTAR":0.00010440533,"MEAN_MOTION_DOT":5.6e-7,"MEAN_MOTION_DDOT":0},{"OBJECT_NAME":"ONEWEB-0550","OBJECT_ID":"2023-043G","EPOCH":"2026-07-12T15:54:24.331968","CLASSIFICATION_TYPE":"U","MEAN_MOTION":13.21827132,"ECCENTRICITY":0.0001851,"INCLINATION":87.9236,"RA_OF_ASC_NODE":238.9084,"ARG_OF_PERICENTER":97.0737,"MEAN_ANOMALY":263.0607,"EPHEMERIS_TYPE":0,"NORAD_CAT_ID":56052,"ELEMENT_SET_NO":999,"REV_AT_EPOCH":16159,"BSTAR":0.000012496,"MEAN_MOTION_DOT":1.8e-7,"MEAN_MOTION_DDOT":0},{"OBJECT_NAME":"ONEWEB-0551","OBJECT_ID":"2023-043H","EPOCH":"2026-07-12T17:03:07.187904","CLASSIFICATION_TYPE":"U","MEAN_MOTION":13.15547386,"ECCENTRICITY":0.0002344,"INCLINATION":87.8986,"RA_OF_ASC_NODE":254.1408,"ARG_OF_PERICENTER":103.8026,"MEAN_ANOMALY":256.3366,"EPHEMERIS_TYPE":0,"NORAD_CAT_ID":56053,"ELEMENT_SET_NO":999,"REV_AT_EPOCH":15975,"BSTAR":0.00012129,"MEAN_MOTION_DOT":5.8e-7,"MEAN_MOTION_DDOT":0},{"OBJECT_NAME":"ONEWEB-0552","OBJECT_ID":"2023-043J","EPOCH":"2026-07-12T15:47:07.002816","CLASSIFICATION_TYPE":"U","MEAN_MOTION":13.21826234,"ECCENTRICITY":0.0002049,"INCLINATION":87.9231,"RA_OF_ASC_NODE":238.9142,"ARG_OF_PERICENTER":102.2159,"MEAN_ANOMALY":257.9205,"EPHEMERIS_TYPE":0,"NORAD_CAT_ID":56054,"ELEMENT_SET_NO":999,"REV_AT_EPOCH":16159,"BSTAR":0.000059835,"MEAN_MOTION_DOT":3.8e-7,"MEAN_MOTION_DDOT":0},{"OBJECT_NAME":"ONEWEB-0553","OBJECT_ID":"2023-043K","EPOCH":"2026-07-12T15:22:55.009344","CLASSIFICATION_TYPE":"U","MEAN_MOTION":13.16593657,"ECCENTRICITY":0.00021,"INCLINATION":87.9082,"RA_OF_ASC_NODE":223.7182,"ARG_OF_PERICENTER":84.3306,"MEAN_ANOMALY":275.8064,"EPHEMERIS_TYPE":0,"NORAD_CAT_ID":56055,"ELEMENT_SET_NO":999,"REV_AT_EPOCH":16232,"BSTAR":-0.000040902,"MEAN_MOTION_DOT":-3e-8,"MEAN_MOTION_DDOT":0},{"OBJECT_NAME":"ONEWEB-0554","OBJECT_ID":"2023-043L","EPOCH":"2026-07-12T15:04:40.895040","CLASSIFICATION_TYPE":"U","MEAN_MOTION":13.16594758,"ECCENTRICITY":0.0001518,"INCLINATION":87.9078,"RA_OF_ASC_NODE":223.7294,"ARG_OF_PERICENTER":91.9635,"MEAN_ANOMALY":268.167,"EPHEMERIS_TYPE":0,"NORAD_CAT_ID":56056,"ELEMENT_SET_NO":999,"REV_AT_EPOCH":16230,"BSTAR":0.00016556,"MEAN_MOTION_DOT":7.6e-7,"MEAN_MOTION_DDOT":0},{"OBJECT_NAME":"ONEWEB-0555","OBJECT_ID":"2023-043M","EPOCH":"2026-07-12T14:09:57.226752","CLASSIFICATION_TYPE":"U","MEAN_MOTION":13.16593636,"ECCENTRICITY":0.0002258,"INCLINATION":87.9078,"RA_OF_ASC_NODE":223.726,"ARG_OF_PERICENTER":79.3024,"MEAN_ANOMALY":280.8361,"EPHEMERIS_TYPE":0,"NORAD_CAT_ID":56057,"ELEMENT_SET_NO":999,"REV_AT_EPOCH":16230,"BSTAR":0.000050259,"MEAN_MOTION_DOT":3.2e-7,"MEAN_MOTION_DDOT":0},{"OBJECT_NAME":"ONEWEB-0557","OBJECT_ID":"2023-043N","EPOCH":"2026-07-12T12:41:02.316192","CLASSIFICATION_TYPE":"U","MEAN_MOTION":13.16593578,"ECCENTRICITY":0.00014341,"INCLINATION":87.9079,"RA_OF_ASC_NODE":223.748,"ARG_OF_PERICENTER":56.6829,"MEAN_ANOMALY":303.4439,"EPHEMERIS_TYPE":0,"NORAD_CAT_ID":56058,"ELEMENT_SET_NO":999,"REV_AT_EPOCH":16229,"BSTAR":0.00026843832,"MEAN_MOTION_DOT":0.00000115,"MEAN_MOTION_DDOT":0}]}
