ONEWEB-0674             
1 55833U 23029AP  26193.75614420 -.00000114  00000+0 -34095-3 0  9991
2 55833  87.8954 284.6222 0001620 105.2784 254.8525 13.14501789162772
ONEWEB-0675             
1 55834U 23029AQ  26193.68168318  .00000064  00000+0  12739-3 0  9997
2 55834  87.9186 299.9003 0002246  97.8612 262.2776 13.19724393162288
ONEWEB-0720             
1 55835U 23029AR  26193.74960380 -.00000037  00000+0 -12541-3 0  9997
2 55835  87.9186 299.8861 0002076 108.1898 251.9461 13.19725912162210
ONEWEB-0537             
1 56046U 23043A   26193.57758690  .00000043  00000+0  80115-4 0  9996
2 56046  87.9082 223.7278 0002233  88.3924 271.7463 13.16593910162302
ONEWEB-0538             
1 56047U 23043B   26193.64724802 -.00000031  00000+0 -11591-3 0  9993
2 56047  87.9087 223.7161 0002343  96.1679 263.9719 13.16594009162324
ONEWEB-0546             
1 56048U 23043C   26193.63458192 -.00000029  00000+0 -11049-3 0  9994
2 56048  87.9087 223.7186 0002317  78.9274 281.2117 13.16594243162316
ONEWEB-0547             
1 56049U 23043D   26193.68211198 -.00000065  00000+0 -18908-3 0  9994
2 56049  87.9243 238.9006 0002411 113.3786 246.7602 13.21826419161590
ONEWEB-0548             
1 56050U 23043E   26193.50712052 -.00000005  00000+0 -45916-4 0  9996
2 56050  87.9074 223.7409 0001596  92.2249 267.9065 13.16594475162299
ONEWEB-0549             
1 56051U 23043F   26193.52483615  .00000056  00000+0  10441-3 0  9997
2 56051  87.9232 238.9380 0002439  98.3208 261.8203 13.21827225161576
ONEWEB-0550             
1 56052U 23043G   26193.66278162  .00000018  00000+0  12496-4 0  9993
2 56052  87.9236 238.9084 0001851  97.0737 263.0607 13.21827132161593
ONEWEB-0551             
1 56053U 23043H   26193.71049986  .00000058  00000+0  12129-3 0  9996
2 56053  87.8986 254.1408 0002344 103.8026 256.3366 13.15547386159755
ONEWEB-0552             
1 56054U 23043J   26193.65771994  .00000038  00000+0  59835-4 0  9995
2 56054  87.9231 238.9142 0002049 102.2159 257.9205 13.21826234161590
ONEWEB-0553             
1 56055U 23043K   26193.64091446 -.00000003  00000+0 -40902-4 0  9991
2 56055  87.9082 223.7182 0002100  84.3306 275.8064 13.16593657162321
ONEWEB-0554             
1 56056U 23043L   26193.62825110  .00000076  00000+0  16556-3 0  9998
2 56056  87.9078 223.7294 0001518  91.9635 268.1670 13.16594758162301
ONEWEB-0555             
1 56057U 23043M   26193.59024568  .00000032  00000+0  50259-4 0  9994
2 56057  87.9078 223.7260 0002258  79.3024 280.8361 13.16593636162301
ONEWEB-0557             
1 56058U 23043N   26193.52849903  .00000115  00000+0  26844-3 0  9990
2 56058  87.9079 223.7480 0001434  56.6829 303.4439 13.16593578162294
